[{"OBJECT_NAME":"GAOFEN-11 01","OBJECT_ID":"2018-063A","EPOCH":"2026-03-09T23:56:00.610656","MEAN_MOTION":15.52267028,"ECCENTRICITY":0.0003697,"INCLINATION":97.1408,"RA_OF_ASC_NODE":136.3151,"ARG_OF_PERICENTER":2.5809,"MEAN_ANOMALY":357.5463,"EPHEMERIS_TYPE":0,"CLASSIFICATION_TYPE":"U","NORAD_CAT_ID":43585,"ELEMENT_SET_NO":999,"REV_AT_EPOCH":42494,"BSTAR":0.00020074947,"MEAN_MOTION_DOT":0.00012103,"MEAN_MOTION_DDOT":0},{"OBJECT_NAME":"FLOCK 4Q-22","OBJECT_ID":"2023-174BC","EPOCH":"2026-03-09T19:17:02.588352","MEAN_MOTION":15.52193372,"ECCENTRICITY":0.00064915,"INCLINATION":97.3842,"RA_OF_ASC_NODE":157.7616,"ARG_OF_PERICENTER":145.1579,"MEAN_ANOMALY":215.01,"EPHEMERIS_TYPE":0,"CLASSIFICATION_TYPE":"U","NORAD_CAT_ID":58306,"ELEMENT_SET_NO":999,"REV_AT_EPOCH":13041,"BSTAR":0.00065133001,"MEAN_MOTION_DOT":0.00039526,"MEAN_MOTION_DDOT":0}]
